     2.11           N: GPS NAV DATA                         RINEX VERSION / TYPE
teqc  2019Feb25                         20221121 12:25:45UTCPGM / RUN BY / DATE
OSX ker:10.11.6|Core i5|gcc 4.3 -m64|OSX ker:10.10+|=+      COMMENT
    4.6566D-09  1.4901D-08 -5.9605D-08 -5.9605D-08          ION ALPHA
    7.9872D+04  6.5536D+04 -6.5536D+04 -3.9322D+05          ION BETA
    1.862645149231D-09 4.440892098501D-15   589824     1542 DELTA-UTC: A0,A1,T,W
                                                            END OF HEADER
22 09  7 30 23 59 44.0 1.943372189999D-04-6.821210263297D-13 0.000000000000D+00
    2.800000000000D+01 8.040625000000D+01 4.699124308818D-09-2.420117972793D+00
    4.198402166367D-06 5.228527821600D-03 6.811693310738D-06 5.153661823273D+03
    4.319840000000D+05 1.862645149231D-08-4.443866209322D-01-7.078051567078D-08
    9.392286515119D-01 2.394062500000D+02-1.895353307564D+00-8.013548082158D-09
   -1.825076021742D-10 1.000000000000D+00 1.542000000000D+03 0.000000000000D+00
    2.000000000000D+00 0.000000000000D+00-1.769512891769D-08 2.800000000000D+01
    4.248180000000D+05 4.000000000000D+00
